COSMOS 2425 (716)       
1 29670U 06062A   18180.16007767 -.00000028  00000-0  10000-3 0  9995
2 29670  65.2739 292.1317 0020268 347.8949 269.4110  2.13104957 89568
COSMOS 2426 (717)       
1 29671U 06062B   18179.61776102 -.00000033  00000-0  10000-3 0  9996
2 29671  65.2909 292.2485 0018946 163.8747 253.0424  2.13102855 89569
COSMOS 2433 (720)       
1 32275U 07052A   18179.62069817 -.00000044  00000-0  10000-3 0  9991
2 32275  65.6914  52.9789 0001775 298.3177  96.4725  2.13104408 83073
COSMOS 2432 (719)       
1 32276U 07052B   18179.43085395 -.00000045  00000-0  10000-3 0  9991
2 32276  65.7050  53.0616 0011719 341.5949 219.5074  2.13103884 83065
COSMOS 2434 (721)       
1 32393U 07065A   18180.02578439 -.00000028  00000-0  00000+0 0  9994
2 32393  64.8875 291.1057 0005207 116.4267 117.1695  2.13102937 81788
COSMOS 2436 (723)       
1 32395U 07065C   18179.96463259 -.00000029  00000-0  10000-3 0  9996
2 32395  64.8979 291.1583 0014312   4.0948 233.1453  2.13104342 81710
COSMOS 2456 (730)       
1 36111U 09070A   18180.11984935  .00000047  00000-0  00000+0 0  9996
2 36111  64.1878 170.6940 0006684 300.2661 177.7795  2.13102965 66450
COSMOS 2457 (733)       
1 36112U 09070B   18179.60283112  .00000047  00000-0  00000-0 0  9999
2 36112  64.1695 170.6220 0005732 196.1563  12.0689  2.13101578 66446
COSMOS 2458 (734)       
1 36113U 09070C   18179.98060904  .00000047  00000-0  10000-3 0  9997
2 36113  64.1749 170.6201 0003099 314.4883 231.0957  2.13096750 66457
COSMOS 2459 (731)       
1 36400U 10007A   18179.95184286 -.00000044  00000-0  10000-3 0  9993
2 36400  65.6026  52.0257 0027881 354.4813 153.2071  2.13102193 64804
COSMOS 2461 (735)       
1 36401U 10007B   18179.39771742 -.00000045  00000-0  10000-3 0  9992
2 36401  65.5937  52.0211 0008365  60.3556 292.8240  2.13102265 64783
COSMOS 2460 (732)       
1 36402U 10007C   18180.00898424 -.00000044  00000-0  10000-3 0  9999
2 36402  65.5851  51.9672 0001947  39.2388 103.4715  2.13101521 64806
COSMOS 2464 (736)       
1 37139U 10041C   18180.44850329 -.00000026  00000-0  00000+0 0  9990
2 37139  64.4917 290.8900 0023147  14.8625  50.8297  2.13102676 60888
COSMOS 2471 (701K)      
1 37372U 11009A   18180.13174992 -.00000044  00000-0  00000+0 0  9995
2 37372  65.5819  51.9091 0007025 233.9171 147.1888  2.13107460 57084
COSMOS 2474 (742)       
1 37829U 11055A   18179.67722226  .00000049  00000-0  00000-0 0  9994
2 37829  64.5114 171.4312 0011077 254.0225 102.5512  2.13101908 52432
COSMOS 2476 (744)       
1 37867U 11064A   18179.38601697  .00000049  00000-0  00000-0 0  9992
2 37867  64.4906 171.5029 0020623 245.7407 293.4788  2.13101984 51780
COSMOS 2477 (745)       
1 37868U 11064B   18180.09337566  .00000049  00000-0  00000+0 0  9993
2 37868  64.4998 171.5276 0018482 247.3347 293.4314  2.13101802 51758
COSMOS 2475 (743)       
1 37869U 11064C   18179.58410878  .00000049  00000-0  00000-0 0  9995
2 37869  64.5073 171.5394 0023124 268.7301 198.0636  2.13102093 51751
COSMOS 2485 (747)       
1 39155U 13019A   18179.90411157  .00000049  00000-0  00000-0 0  9994
2 39155  64.6603 171.5976 0020962 241.1445  20.4082  2.13101981 40260
COSMOS 2492 (754)       
1 39620U 14012A   18180.13775889 -.00000044  00000-0  10000-3 0  9997
2 39620  65.4749  51.8467 0014995 335.6526 139.9305  2.13103314 33224
COSMOS 2500 (755)       
1 40001U 14032A   18180.20510593 -.00000044  00000-0  00000+0 0  9996
2 40001  65.4153  51.8124 0004309 201.4197 188.0811  2.13102770 31444
COSMOS 2501 (702K)      
1 40315U 14075A   18180.01498874 -.00000031  00000-0  00000+0 0  9993
2 40315  64.2170 292.1149 0015946 204.4181 200.7291  2.13098608 27847
COSMOS 2514 (751)       
1 41330U 16008A   18179.90496002 -.00000045  00000-0  00000-0 0  9992
2 41330  65.2182  51.8731 0007593 216.3026 123.8456  2.13103237 18590
COSMOS 2516 (753)       
1 41554U 16032A   18180.16115334 -.00000029  00000-0  00000+0 0  9994
2 41554  64.4370 291.9783 0012323 212.6112 215.1723  2.13101572 16213
COSMOS 2522 (752)       
1 42939U 17055A   18180.31519675 -.00000028  00000-0  00000+0 0  9990
2 42939  64.6677 291.9422 0006928 237.4541 174.9352  2.13101791  5972
